STARLINK-30900          
1 58423U 23180X   26068.01068911 -.00003255  00000+0 -10881-3 0  9991
2 58423  43.0002  56.1942 0001163 267.6681  92.4038 15.27578512127411
LIME                    
1 62648U 25009AR  26068.73906781  .00013254  00000+0  47723-3 0  9995
2 62648  97.3985 151.4831 0001635  35.9029 324.2320 15.28703313 63766
